{
  "type": "FeatureCollection",
  "features": [
    {
      "type": "Feature",
      "properties": {
        "norad_id": 55973,
        "name": "TIANMU-1 03",
        "group": "weather",
        "lat": -55.56447727906512,
        "lon": -31.295361127980808,
        "alt_km": 452.09203190266726,
        "timestamp": "2025-12-22T20:43:45.486386+00:00",
        "meta_object_name": "TIANMU-1 03",
        "meta_object_id": "2023-039A",
        "meta_epoch": "2025-12-22T15:01:57.655200",
        "meta_mean_motion": 15.41196466,
        "meta_eccentricity": 0.00039276,
        "meta_inclination": 97.511,
        "meta_ra_of_asc_node": 159.5558,
        "meta_arg_of_pericenter": 32.7494,
        "meta_mean_anomaly": 327.3995,
        "meta_ephemeris_type": 0,
        "meta_classification_type": "U",
        "meta_norad_cat_id": 55973,
        "meta_element_set_no": 999,
        "meta_rev_at_epoch": 15358,
        "meta_bstar": 0.00038312942,
        "meta_mean_motion_dot": 0.0001583,
        "meta_mean_motion_ddot": 0,
        "tle_line1": "1 55973U 23039A   25356.62636175  .00015830  00000+0  38313-3 0  9990",
        "tle_line2": "2 55973  97.5110 159.5558 0003927  32.7494 327.3995 15.41196466153585"
      },
      "geometry": {
        "type": "Point",
        "coordinates": [
          -31.295361127980808,
          -55.56447727906512
        ]
      }
    },
    {
      "type": "Feature",
      "properties": {
        "norad_id": 55974,
        "name": "TIANMU-1 04",
        "group": "weather",
        "lat": 2.3931287056246546,
        "lon": 158.67114530910112,
        "alt_km": 441.49304288211624,
        "timestamp": "2025-12-22T20:43:45.486402+00:00",
        "meta_object_name": "TIANMU-1 04",
        "meta_object_id": "2023-039B",
        "meta_epoch": "2025-12-22T14:29:14.250624",
        "meta_mean_motion": 15.41537418,
        "meta_eccentricity": 0.00045385,
        "meta_inclination": 97.5041,
        "meta_ra_of_asc_node": 158.7195,
        "meta_arg_of_pericenter": 26.4289,
        "meta_mean_anomaly": 333.7188,
        "meta_ephemeris_type": 0,
        "meta_classification_type": "U",
        "meta_norad_cat_id": 55974,
        "meta_element_set_no": 999,
        "meta_rev_at_epoch": 15358,
        "meta_bstar": 0.00039094497,
        "meta_mean_motion_dot": 0.00016341,
        "meta_mean_motion_ddot": 0,
        "tle_line1": "1 55974U 23039B   25356.60363716  .00016341  00000+0  39094-3 0  9992",
        "tle_line2": "2 55974  97.5041 158.7195 0004538  26.4289 333.7188 15.41537418153589"
      },
      "geometry": {
        "type": "Point",
        "coordinates": [
          158.67114530910112,
          2.3931287056246546
        ]
      }
    },
    {
      "type": "Feature",
      "properties": {
        "norad_id": 55975,
        "name": "TIANMU-1 05",
        "group": "weather",
        "lat": 20.228739612319735,
        "lon": 156.69363089323554,
        "alt_km": 440.43667119598376,
        "timestamp": "2025-12-22T20:43:45.486431+00:00",
        "meta_object_name": "TIANMU-1 05",
        "meta_object_id": "2023-039C",
        "meta_epoch": "2025-12-22T14:24:28.522368",
        "meta_mean_motion": 15.41152299,
        "meta_eccentricity": 0.00040474,
        "meta_inclination": 97.5087,
        "meta_ra_of_asc_node": 159.2089,
        "meta_arg_of_pericenter": 51.5703,
        "meta_mean_anomaly": 308.5906,
        "meta_ephemeris_type": 0,
        "meta_classification_type": "U",
        "meta_norad_cat_id": 55975,
        "meta_element_set_no": 999,
        "meta_rev_at_epoch": 15356,
        "meta_bstar": 0.00038491467,
        "meta_mean_motion_dot": 0.00015881,
        "meta_mean_motion_ddot": 0,
        "tle_line1": "1 55975U 23039C   25356.60033012  .00015881  00000+0  38491-3 0  9994",
        "tle_line2": "2 55975  97.5087 159.2089 0004047  51.5703 308.5906 15.41152299153569"
      },
      "geometry": {
        "type": "Point",
        "coordinates": [
          156.69363089323554,
          20.228739612319735
        ]
      }
    },
    {
      "type": "Feature",
      "properties": {
        "norad_id": 55976,
        "name": "TIANMU-1 06",
        "group": "weather",
        "lat": -7.708056060494287,
        "lon": 160.97609753249816,
        "alt_km": 443.65775691145154,
        "timestamp": "2025-12-22T20:43:45.486452+00:00",
        "meta_object_name": "TIANMU-1 06",
        "meta_object_id": "2023-039D",
        "meta_epoch": "2025-12-22T14:31:53.611104",
        "meta_mean_motion": 15.41589161,
        "meta_eccentricity": 0.00043167,
        "meta_inclination": 97.5098,
        "meta_ra_of_asc_node": 159.6874,
        "meta_arg_of_pericenter": 45.6913,
        "meta_mean_anomaly": 314.4686,
        "meta_ephemeris_type": 0,
        "meta_classification_type": "U",
        "meta_norad_cat_id": 55976,
        "meta_element_set_no": 999,
        "meta_rev_at_epoch": 15358,
        "meta_bstar": 0.00039392222,
        "meta_mean_motion_dot": 0.00016494,
        "meta_mean_motion_ddot": 0,
        "tle_line1": "1 55976U 23039D   25356.60548161  .00016494  00000+0  39392-3 0  9993",
        "tle_line2": "2 55976  97.5098 159.6874 0004316  45.6913 314.4686 15.41589161153589"
      },
      "geometry": {
        "type": "Point",
        "coordinates": [
          160.97609753249816,
          -7.708056060494287
        ]
      }
    },
    {
      "type": "Feature",
      "properties": {
        "norad_id": 56232,
        "name": "FENGYUN 3G",
        "group": "weather",
        "lat": -44.49231549582747,
        "lon": 50.79296758891576,
        "alt_km": 404.7599097525808,
        "timestamp": "2025-12-22T20:43:45.486469+00:00",
        "meta_object_name": "FENGYUN 3G",
        "meta_object_id": "2023-055A",
        "meta_epoch": "2025-12-22T13:30:09.673344",
        "meta_mean_motion": 15.5419902,
        "meta_eccentricity": 0.0009299,
        "meta_inclination": 49.9921,
        "meta_ra_of_asc_node": 176.742,
        "meta_arg_of_pericenter": 192.777,
        "meta_mean_anomaly": 167.2963,
        "meta_ephemeris_type": 0,
        "meta_classification_type": "U",
        "meta_norad_cat_id": 56232,
        "meta_element_set_no": 999,
        "meta_rev_at_epoch": 15255,
        "meta_bstar": 0.00048213619,
        "meta_mean_motion_dot": 0.00031749,
        "meta_mean_motion_ddot": 0,
        "tle_line1": "1 56232U 23055A   25356.56261196  .00031749  00000+0  48214-3 0  9995",
        "tle_line2": "2 56232  49.9921 176.7420 0009299 192.7770 167.2963 15.54199020152551"
      },
      "geometry": {
        "type": "Point",
        "coordinates": [
          50.79296758891576,
          -44.49231549582747
        ]
      }
    },
    {
      "type": "Feature",
      "properties": {
        "norad_id": 57166,
        "name": "METEOR-M2 3",
        "group": "weather",
        "lat": -78.00867877132613,
        "lon": 95.91368245650597,
        "alt_km": 817.8564861623718,
        "timestamp": "2025-12-22T20:43:45.486486+00:00",
        "meta_object_name": "METEOR-M2 3",
        "meta_object_id": "2023-091A",
        "meta_epoch": "2025-12-22T14:22:00.355008",
        "meta_mean_motion": 14.24027271,
        "meta_eccentricity": 0.00033697,
        "meta_inclination": 98.6363,
        "meta_ra_of_asc_node": 49.9652,
        "meta_arg_of_pericenter": 338.7447,
        "meta_mean_anomaly": 21.3591,
        "meta_ephemeris_type": 0,
        "meta_classification_type": "U",
        "meta_norad_cat_id": 57166,
        "meta_element_set_no": 999,
        "meta_rev_at_epoch": 12938,
        "meta_bstar": 2.9352616e-05,
        "meta_mean_motion_dot": 2.4e-07,
        "meta_mean_motion_ddot": 0,
        "tle_line1": "1 57166U 23091A   25356.59861522  .00000024  00000+0  29353-4 0  9990",
        "tle_line2": "2 57166  98.6363  49.9652 0003369 338.7447  21.3591 14.24027271129388"
      },
      "geometry": {
        "type": "Point",
        "coordinates": [
          95.91368245650597,
          -78.00867877132613
        ]
      }
    },
    {
      "type": "Feature",
      "properties": {
        "norad_id": 57399,
        "name": "TIANMU-1 07",
        "group": "weather",
        "lat": -65.5066558614874,
        "lon": 62.80010210180721,
        "alt_km": 490.3192028202975,
        "timestamp": "2025-12-22T20:43:45.486502+00:00",
        "meta_object_name": "TIANMU-1 07",
        "meta_object_id": "2023-101A",
        "meta_epoch": "2025-12-22T14:44:03.075072",
        "meta_mean_motion": 15.28203613,
        "meta_eccentricity": 0.00051551,
        "meta_inclination": 97.2859,
        "meta_ra_of_asc_node": 46.246,
        "meta_arg_of_pericenter": 56.6545,
        "meta_mean_anomaly": 303.5187,
        "meta_ephemeris_type": 0,
        "meta_classification_type": "U",
        "meta_norad_cat_id": 57399,
        "meta_element_set_no": 999,
        "meta_rev_at_epoch": 13466,
        "meta_bstar": 0.0002833118,
        "meta_mean_motion_dot": 7.718e-05,
        "meta_mean_motion_ddot": 0,
        "tle_line1": "1 57399U 23101A   25356.61392448  .00007718  00000+0  28331-3 0  9990",
        "tle_line2": "2 57399  97.2859  46.2460 0005155  56.6545 303.5187 15.28203613134662"
      },
      "geometry": {
        "type": "Point",
        "coordinates": [
          62.80010210180721,
          -65.5066558614874
        ]
      }
    }
  ]
}